{
  "type": "FeatureCollection",
  "features": [
    {
      "type": "Feature",
      "properties": {
        "norad_id": 34036,
        "name": "COSMOS 2251 DEB",
        "group": "cosmos-2251-debris",
        "lat": -66.6447852802607,
        "lon": 89.59229121644559,
        "alt_km": 591.8178174927607,
        "timestamp": "2025-12-21T16:47:55.132493+00:00",
        "meta_object_name": "COSMOS 2251 DEB",
        "meta_object_id": "1993-036HX",
        "meta_epoch": "2025-12-21T09:05:49.640064",
        "meta_mean_motion": 14.95593428,
        "meta_eccentricity": 0.0010686,
        "meta_inclination": 74.0196,
        "meta_ra_of_asc_node": 131.8191,
        "meta_arg_of_pericenter": 161.0492,
        "meta_mean_anomaly": 199.1092,
        "meta_ephemeris_type": 0,
        "meta_classification_type": "U",
        "meta_norad_cat_id": 34036,
        "meta_element_set_no": 999,
        "meta_rev_at_epoch": 88699,
        "meta_bstar": 0.003071,
        "meta_mean_motion_dot": 0.00034269,
        "meta_mean_motion_ddot": 0,
        "tle_line1": "1 34036U 93036HX  25355.37904676  .00034269  00000+0  30710-2 0  9995",
        "tle_line2": "2 34036  74.0196 131.8191 0010686 161.0492 199.1092 14.95593428886994"
      },
      "geometry": {
        "type": "Point",
        "coordinates": [
          89.59229121644559,
          -66.6447852802607
        ]
      }
    },
    {
      "type": "Feature",
      "properties": {
        "norad_id": 34037,
        "name": "COSMOS 2251 DEB",
        "group": "cosmos-2251-debris",
        "lat": -12.640112306744566,
        "lon": -142.2796976382447,
        "alt_km": 793.7905031466862,
        "timestamp": "2025-12-21T16:47:55.132503+00:00",
        "meta_object_name": "COSMOS 2251 DEB",
        "meta_object_id": "1993-036HY",
        "meta_epoch": "2025-12-21T09:12:46.973664",
        "meta_mean_motion": 14.34685455,
        "meta_eccentricity": 0.0051807,
        "meta_inclination": 74.0511,
        "meta_ra_of_asc_node": 34.6216,
        "meta_arg_of_pericenter": 81.9315,
        "meta_mean_anomaly": 278.7711,
        "meta_ephemeris_type": 0,
        "meta_classification_type": "U",
        "meta_norad_cat_id": 34037,
        "meta_element_set_no": 999,
        "meta_rev_at_epoch": 87841,
        "meta_bstar": 0.00033945,
        "meta_mean_motion_dot": 9.5e-06,
        "meta_mean_motion_ddot": 0,
        "tle_line1": "1 34037U 93036HY  25355.38387701  .00000950  00000+0  33945-3 0  9995",
        "tle_line2": "2 34037  74.0511  34.6216 0051807  81.9315 278.7711 14.34685455878413"
      },
      "geometry": {
        "type": "Point",
        "coordinates": [
          -142.2796976382447,
          -12.640112306744566
        ]
      }
    },
    {
      "type": "Feature",
      "properties": {
        "norad_id": 34040,
        "name": "COSMOS 2251 DEB",
        "group": "cosmos-2251-debris",
        "lat": 64.74164475945909,
        "lon": -166.52509506994963,
        "alt_km": 1065.3134989312448,
        "timestamp": "2025-12-21T16:47:55.132513+00:00",
        "meta_object_name": "COSMOS 2251 DEB",
        "meta_object_id": "1993-036JB",
        "meta_epoch": "2025-12-21T11:01:12.652608",
        "meta_mean_motion": 13.68387748,
        "meta_eccentricity": 0.0343335,
        "meta_inclination": 73.9556,
        "meta_ra_of_asc_node": 51.4553,
        "meta_arg_of_pericenter": 3.0503,
        "meta_mean_anomaly": 357.2594,
        "meta_ephemeris_type": 0,
        "meta_classification_type": "U",
        "meta_norad_cat_id": 34040,
        "meta_element_set_no": 999,
        "meta_rev_at_epoch": 83719,
        "meta_bstar": 0.00059105,
        "meta_mean_motion_dot": 7.4e-06,
        "meta_mean_motion_ddot": 0,
        "tle_line1": "1 34040U 93036JB  25355.45917422  .00000740  00000+0  59105-3 0  9999",
        "tle_line2": "2 34040  73.9556  51.4553 0343335   3.0503 357.2594 13.68387748837191"
      },
      "geometry": {
        "type": "Point",
        "coordinates": [
          -166.52509506994963,
          64.74164475945909
        ]
      }
    },
    {
      "type": "Feature",
      "properties": {
        "norad_id": 34045,
        "name": "COSMOS 2251 DEB",
        "group": "cosmos-2251-debris",
        "lat": -35.904056187256614,
        "lon": 126.39476177049194,
        "alt_km": 801.3424625561674,
        "timestamp": "2025-12-21T16:47:55.132524+00:00",
        "meta_object_name": "COSMOS 2251 DEB",
        "meta_object_id": "1993-036JG",
        "meta_epoch": "2025-12-21T06:04:11.257248",
        "meta_mean_motion": 14.34073261,
        "meta_eccentricity": 0.0026018,
        "meta_inclination": 74.0396,
        "meta_ra_of_asc_node": 295.2545,
        "meta_arg_of_pericenter": 16.3764,
        "meta_mean_anomaly": 54.2585,
        "meta_ephemeris_type": 0,
        "meta_classification_type": "U",
        "meta_norad_cat_id": 34045,
        "meta_element_set_no": 999,
        "meta_rev_at_epoch": 88155,
        "meta_bstar": 7.9991e-05,
        "meta_mean_motion_dot": 1.98e-06,
        "meta_mean_motion_ddot": 0,
        "tle_line1": "1 34045U 93036JG  25355.25290807  .00000198  00000+0  79991-4 0  9996",
        "tle_line2": "2 34045  74.0396 295.2545 0026018  16.3764  54.2585 14.34073261881550"
      },
      "geometry": {
        "type": "Point",
        "coordinates": [
          126.39476177049194,
          -35.904056187256614
        ]
      }
    },
    {
      "type": "Feature",
      "properties": {
        "norad_id": 34046,
        "name": "COSMOS 2251 DEB",
        "group": "cosmos-2251-debris",
        "lat": -62.57082561188297,
        "lon": -152.7906471912019,
        "alt_km": 796.371438536994,
        "timestamp": "2025-12-21T16:47:55.132534+00:00",
        "meta_object_name": "COSMOS 2251 DEB",
        "meta_object_id": "1993-036JH",
        "meta_epoch": "2025-12-20T01:44:37.329792",
        "meta_mean_motion": 14.46526924,
        "meta_eccentricity": 0.00744564,
        "meta_inclination": 74.0389,
        "meta_ra_of_asc_node": 356.7805,
        "meta_arg_of_pericenter": 78.006,
        "meta_mean_anomaly": 338.5486,
        "meta_ephemeris_type": 0,
        "meta_classification_type": "U",
        "meta_norad_cat_id": 34046,
        "meta_element_set_no": 999,
        "meta_rev_at_epoch": 87932,
        "meta_bstar": 0.00078666467,
        "meta_mean_motion_dot": 2.906e-05,
        "meta_mean_motion_ddot": 0,
        "tle_line1": "1 34046U 93036JH  25354.07265428  .00002906  00000+0  78666-3 0  9993",
        "tle_line2": "2 34046  74.0389 356.7805 0074456  78.0060 338.5486 14.46526924879320"
      },
      "geometry": {
        "type": "Point",
        "coordinates": [
          -152.7906471912019,
          -62.57082561188297
        ]
      }
    },
    {
      "type": "Feature",
      "properties": {
        "norad_id": 34050,
        "name": "COSMOS 2251 DEB",
        "group": "cosmos-2251-debris",
        "lat": -56.90192077549934,
        "lon": -31.26974918964549,
        "alt_km": 982.6235354207847,
        "timestamp": "2025-12-21T16:47:55.132544+00:00",
        "meta_object_name": "COSMOS 2251 DEB",
        "meta_object_id": "1993-036JM",
        "meta_epoch": "2025-12-21T06:52:34.412160",
        "meta_mean_motion": 13.96199106,
        "meta_eccentricity": 0.0214703,
        "meta_inclination": 74.0882,
        "meta_ra_of_asc_node": 355.3911,
        "meta_arg_of_pericenter": 57.5144,
        "meta_mean_anomaly": 326.9126,
        "meta_ephemeris_type": 0,
        "meta_classification_type": "U",
        "meta_norad_cat_id": 34050,
        "meta_element_set_no": 999,
        "meta_rev_at_epoch": 85551,
        "meta_bstar": 0.00060759,
        "meta_mean_motion_dot": 9.92e-06,
        "meta_mean_motion_ddot": 0,
        "tle_line1": "1 34050U 93036JM  25355.28650940  .00000992  00000+0  60759-3 0  9996",
        "tle_line2": "2 34050  74.0882 355.3911 0214703  57.5144 326.9126 13.96199106855511"
      },
      "geometry": {
        "type": "Point",
        "coordinates": [
          -31.26974918964549,
          -56.90192077549934
        ]
      }
    },
    {
      "type": "Feature",
      "properties": {
        "norad_id": 34053,
        "name": "COSMOS 2251 DEB",
        "group": "cosmos-2251-debris",
        "lat": -18.1900022637656,
        "lon": 53.1989647078409,
        "alt_km": 1394.077686101119,
        "timestamp": "2025-12-21T16:47:55.132554+00:00",
        "meta_object_name": "COSMOS 2251 DEB",
        "meta_object_id": "1993-036JQ",
        "meta_epoch": "2025-12-20T16:41:14.361504",
        "meta_mean_motion": 13.49172922,
        "meta_eccentricity": 0.04226751,
        "meta_inclination": 73.8433,
        "meta_ra_of_asc_node": 229.3517,
        "meta_arg_of_pericenter": 16.5958,
        "meta_mean_anomaly": 344.8501,
        "meta_ephemeris_type": 0,
        "meta_classification_type": "U",
        "meta_norad_cat_id": 34053,
        "meta_element_set_no": 999,
        "meta_rev_at_epoch": 82791,
        "meta_bstar": 0.00050236834,
        "meta_mean_motion_dot": 5.27e-06,
        "meta_mean_motion_ddot": 0,
        "tle_line1": "1 34053U 93036JQ  25354.69530511  .00000527  00000+0  50237-3 0  9998",
        "tle_line2": "2 34053  73.8433 229.3517 0422675  16.5958 344.8501 13.49172922827916"
      },
      "geometry": {
        "type": "Point",
        "coordinates": [
          53.1989647078409,
          -18.1900022637656
        ]
      }
    }
  ]
}